{
    "bodies": [
        {
            "name": "TNO-71",
            "mass": 0,
            "semi_major_axis": 189.44444444444446,
            "eccentricity": 0.8112698412698414,
            "inclination": 0.04917395908396722,
            "longitude_of_ascending_node": 2.191628078610774,
            "argument_of_perihelion": 3.1654535511708968,
            "mean_anomaly": 1.4620221116887464
        },
        {
            "name": "TNO-72",
            "mass": 0,
            "semi_major_axis": 190.0,
            "eccentricity": 0.8114285714285715,
            "inclination": 0.04986655005698084,
            "longitude_of_ascending_node": 0.45734530230723885,
            "argument_of_perihelion": 0.9059886265232997,
            "mean_anomaly": 3.8472945325790913
        },
        {
            "name": "TNO-73",
            "mass": 0,
            "semi_major_axis": 190.55555555555554,
            "eccentricity": 0.8115873015873016,
            "inclination": 0.05055914102999446,
            "longitude_of_ascending_node": 2.8551016963521993,
            "argument_of_perihelion": 3.6716939700367357,
            "mean_anomaly": 0.6466004553271318
        },
        {
            "name": "TNO-74",
            "mass": 0,
            "semi_major_axis": 191.11111111111111,
            "eccentricity": 0.8117460317460318,
            "inclination": 0.05125173200300809,
            "longitude_of_ascending_node": 1.4704819556060333,
            "argument_of_perihelion": 3.5969257325834354,
            "mean_anomaly": 2.3328503682138595
        },
        {
            "name": "TNO-75",
            "mass": 0,
            "semi_major_axis": 191.66666666666669,
            "eccentricity": 0.8119047619047619,
            "inclination": 0.05194432297602171,
            "longitude_of_ascending_node": 0.6509493795428549,
            "argument_of_perihelion": 6.086500969145348,
            "mean_anomaly": 2.690019973327991
        },
        {
            "name": "TNO-76",
            "mass": 0,
            "semi_major_axis": 192.22222222222223,
            "eccentricity": 0.8120634920634922,
            "inclination": 0.05263691394903533,
            "longitude_of_ascending_node": 3.850723575708833,
            "argument_of_perihelion": 5.2700796924291,
            "mean_anomaly": 2.1192403117039005
        },
        {
            "name": "TNO-77",
            "mass": 0,
            "semi_major_axis": 192.77777777777777,
            "eccentricity": 0.8122222222222223,
            "inclination": 0.05332950492204895,
            "longitude_of_ascending_node": 5.559032212062206,
            "argument_of_perihelion": 0.568092654049419,
            "mean_anomaly": 1.7216140297322877
        },
        {
            "name": "TNO-78",
            "mass": 0,
            "semi_major_axis": 193.33333333333334,
            "eccentricity": 0.8123809523809524,
            "inclination": 0.05402209589506258,
            "longitude_of_ascending_node": 1.1554837435676684,
            "argument_of_perihelion": 1.1103772753898453,
            "mean_anomaly": 1.3022301638066358
        },
        {
            "name": "TNO-79",
            "mass": 0,
            "semi_major_axis": 193.88888888888889,
            "eccentricity": 0.8125396825396826,
            "inclination": 0.0547146868680762,
            "longitude_of_ascending_node": 4.018765552042149,
            "argument_of_perihelion": 5.663507542702421,
            "mean_anomaly": 1.1401659383544847
        },
        {
            "name": "TNO-80",
            "mass": 0,
            "semi_major_axis": 194.44444444444446,
            "eccentricity": 0.8126984126984127,
            "inclination": 0.05540727784108982,
            "longitude_of_ascending_node": 2.152720580997742,
            "argument_of_perihelion": 2.149799082191018,
            "mean_anomaly": 3.755868201652689
        },
        {
            "name": "TNO-81",
            "mass": 0,
            "semi_major_axis": 195.0,
            "eccentricity": 0.812857142857143,
            "inclination": 0.05609986881410345,
            "longitude_of_ascending_node": 2.0945089630653317,
            "argument_of_perihelion": 4.051928424223542,
            "mean_anomaly": 4.343334987283037
        },
        {
            "name": "TNO-82",
            "mass": 0,
            "semi_major_axis": 195.55555555555554,
            "eccentricity": 0.8130158730158731,
            "inclination": 0.05679245978711707,
            "longitude_of_ascending_node": 3.449494976476766,
            "argument_of_perihelion": 5.80843524300528,
            "mean_anomaly": 4.731588304664613
        },
        {
            "name": "TNO-83",
            "mass": 0,
            "semi_major_axis": 196.11111111111111,
            "eccentricity": 0.8131746031746032,
            "inclination": 0.05748505076013069,
            "longitude_of_ascending_node": 3.2875882597857955,
            "argument_of_perihelion": 3.536611868316442,
            "mean_anomaly": 2.7300691191421844
        },
        {
            "name": "TNO-84",
            "mass": 0,
            "semi_major_axis": 196.66666666666669,
            "eccentricity": 0.8133333333333334,
            "inclination": 0.05817764173314431,
            "longitude_of_ascending_node": 1.6344261319628772,
            "argument_of_perihelion": 3.7621784110401997,
            "mean_anomaly": 2.7580476687229534
        },
        {
            "name": "TNO-85",
            "mass": 0,
            "semi_major_axis": 197.22222222222223,
            "eccentricity": 0.8134920634920635,
            "inclination": 0.05887023270615794,
            "longitude_of_ascending_node": 1.2050213247749728,
            "argument_of_perihelion": 4.320016800612876,
            "mean_anomaly": 1.217182950433888
        },
        {
            "name": "TNO-86",
            "mass": 0,
            "semi_major_axis": 197.77777777777777,
            "eccentricity": 0.8136507936507937,
            "inclination": 0.05956282367917156,
            "longitude_of_ascending_node": 5.714876932124427,
            "argument_of_perihelion": 3.3038211673135556,
            "mean_anomaly": 2.60718446399289
        },
        {
            "name": "TNO-87",
            "mass": 0,
            "semi_major_axis": 198.33333333333334,
            "eccentricity": 0.8138095238095239,
            "inclination": 0.06025541465218518,
            "longitude_of_ascending_node": 2.009328475843412,
            "argument_of_perihelion": 1.3061663402492851,
            "mean_anomaly": 2.7766624110104234
        },
        {
            "name": "TNO-88",
            "mass": 0,
            "semi_major_axis": 198.88888888888889,
            "eccentricity": 0.813968253968254,
            "inclination": 0.0609480056251988,
            "longitude_of_ascending_node": 6.144699284553941,
            "argument_of_perihelion": 0.3733905191867377,
            "mean_anomaly": 0.9640660393014111
        },
        {
            "name": "TNO-89",
            "mass": 0,
            "semi_major_axis": 199.44444444444446,
            "eccentricity": 0.8141269841269841,
            "inclination": 0.06164059659821243,
            "longitude_of_ascending_node": 1.1746449332476339,
            "argument_of_perihelion": 3.005500748725793,
            "mean_anomaly": 4.023710970392576
        },
        {
            "name": "TNO-90",
            "mass": 0,
            "semi_major_axis": 200.0,
            "eccentricity": 0.8142857142857143,
            "inclination": 0.06233318757122605,
            "longitude_of_ascending_node": 0.05614292967578972,
            "argument_of_perihelion": 2.198421241233798,
            "mean_anomaly": 3.2322440638072254
        },
        {
            "name": "TNO-91",
            "mass": 0,
            "semi_major_axis": 200.55555555555554,
            "eccentricity": 0.8144444444444445,
            "inclination": 0.06302577854423967,
            "longitude_of_ascending_node": 3.0639074470813665,
            "argument_of_perihelion": 1.2136697067888418,
            "mean_anomaly": 5.859051678983596
        },
        {
            "name": "TNO-92",
            "mass": 0,
            "semi_major_axis": 201.11111111111111,
            "eccentricity": 0.8146031746031747,
            "inclination": 0.06371836951725329,
            "longitude_of_ascending_node": 5.843458932008027,
            "argument_of_perihelion": 2.4851201281533517,
            "mean_anomaly": 2.557180320805665
        },
        {
            "name": "TNO-93",
            "mass": 0,
            "semi_major_axis": 201.66666666666669,
            "eccentricity": 0.8147619047619048,
            "inclination": 0.06441096049026691,
            "longitude_of_ascending_node": 4.615138387764971,
            "argument_of_perihelion": 5.360598417693117,
            "mean_anomaly": 4.520363447038089
        },
        {
            "name": "TNO-94",
            "mass": 0,
            "semi_major_axis": 202.22222222222223,
            "eccentricity": 0.8149206349206349,
            "inclination": 0.06510355146328053,
            "longitude_of_ascending_node": 3.425114957557454,
            "argument_of_perihelion": 3.299841769263204,
            "mean_anomaly": 1.3147583172740918
        },
        {
            "name": "TNO-95",
            "mass": 0,
            "semi_major_axis": 202.77777777777777,
            "eccentricity": 0.8150793650793651,
            "inclination": 0.06579614243629417,
            "longitude_of_ascending_node": 3.7165695939698735,
            "argument_of_perihelion": 5.304135897510564,
            "mean_anomaly": 2.8446729081915096
        }
    ]
}